CCSDS_OMM_VERS = 2.0
CREATION_DATE  = 
ORIGINATOR     = 

OBJECT_NAME    = SL-16 R/B
OBJECT_ID      = 1996-051B
CENTER_NAME    = EARTH
REF_FRAME      = TEME
TIME_SYSTEM    = UTC
MEAN_ELEMENT_THEORY = SGP/SGP4

EPOCH          = 2025-11-07T17:09:27.545760
MEAN_MOTION    = 14.12392356
ECCENTRICITY   = .0017805
INCLINATION    = 70.7596
RA_OF_ASC_NODE = 73.4158
ARG_OF_PERICENTER = 305.7990
MEAN_ANOMALY   = 54.1474

EPHEMERIS_TYPE = 0
CLASSIFICATION_TYPE = U
NORAD_CAT_ID   = 24298
ELEMENT_SET_NO = 999
REV_AT_EPOCH   = 50442
BSTAR          = .24471E-5
MEAN_MOTION_DOT = -.45E-6
MEAN_MOTION_DDOT = 0

CCSDS_OMM_VERS = 2.0
CREATION_DATE  = 
ORIGINATOR     = 

OBJECT_NAME    = ORBVIEW 2 (SEASTAR)
OBJECT_ID      = 1997-037A
CENTER_NAME    = EARTH
REF_FRAME      = TEME
TIME_SYSTEM    = UTC
MEAN_ELEMENT_THEORY = SGP/SGP4

EPOCH          = 2025-11-08T01:29:09.843936
MEAN_MOTION    = 14.35375889
ECCENTRICITY   = .0003105
INCLINATION    = 98.8445
RA_OF_ASC_NODE = 108.2679
ARG_OF_PERICENTER = 69.1749
MEAN_ANOMALY   = 290.9767

EPHEMERIS_TYPE = 0
CLASSIFICATION_TYPE = U
NORAD_CAT_ID   = 24883
ELEMENT_SET_NO = 999
REV_AT_EPOCH   = 49102
BSTAR          = .19319E-3
MEAN_MOTION_DOT = .508E-5
MEAN_MOTION_DDOT = 0

CCSDS_OMM_VERS = 2.0
CREATION_DATE  = 
ORIGINATOR     = 

OBJECT_NAME    = SL-16 R/B
OBJECT_ID      = 1998-043G
CENTER_NAME    = EARTH
REF_FRAME      = TEME
TIME_SYSTEM    = UTC
MEAN_ELEMENT_THEORY = SGP/SGP4

EPOCH          = 2025-11-08T03:17:11.331744
MEAN_MOTION    = 14.26011938
ECCENTRICITY   = .0010107
INCLINATION    = 98.8066
RA_OF_ASC_NODE = 259.7717
ARG_OF_PERICENTER = 13.3100
MEAN_ANOMALY   = 346.8344

EPHEMERIS_TYPE = 0
CLASSIFICATION_TYPE = U
NORAD_CAT_ID   = 25400
ELEMENT_SET_NO = 999
REV_AT_EPOCH   = 42166
BSTAR          = .7542E-4
MEAN_MOTION_DOT = .135E-5
MEAN_MOTION_DDOT = 0

CCSDS_OMM_VERS = 2.0
CREATION_DATE  = 
ORIGINATOR     = 

OBJECT_NAME    = SL-16 R/B
OBJECT_ID      = 1998-045B
CENTER_NAME    = EARTH
REF_FRAME      = TEME
TIME_SYSTEM    = UTC
MEAN_ELEMENT_THEORY = SGP/SGP4

EPOCH          = 2025-11-08T02:00:04.711104
MEAN_MOTION    = 14.16168812
ECCENTRICITY   = .0008831
INCLINATION    = 71.0113
RA_OF_ASC_NODE = 77.3044
ARG_OF_PERICENTER = 224.4472
MEAN_ANOMALY   = 135.5944

EPHEMERIS_TYPE = 0
CLASSIFICATION_TYPE = U
NORAD_CAT_ID   = 25407
ELEMENT_SET_NO = 999
REV_AT_EPOCH   = 40988
BSTAR          = .40977E-4
MEAN_MOTION_DOT = .33E-6
MEAN_MOTION_DDOT = 0

CCSDS_OMM_VERS = 2.0
CREATION_DATE  = 
ORIGINATOR     = 

OBJECT_NAME    = ISS (ZARYA)
OBJECT_ID      = 1998-067A
CENTER_NAME    = EARTH
REF_FRAME      = TEME
TIME_SYSTEM    = UTC
MEAN_ELEMENT_THEORY = SGP/SGP4

EPOCH          = 2025-11-07T10:52:22.194624
MEAN_MOTION    = 15.49822938
ECCENTRICITY   = .0005147
INCLINATION    = 51.6332
RA_OF_ASC_NODE = 317.1578
ARG_OF_PERICENTER = 27.3119
MEAN_ANOMALY   = 332.8140

EPHEMERIS_TYPE = 0
CLASSIFICATION_TYPE = U
NORAD_CAT_ID   = 25544
ELEMENT_SET_NO = 999
REV_AT_EPOCH   = 53738
BSTAR          = .24333E-3
MEAN_MOTION_DOT = .13372E-3
MEAN_MOTION_DDOT = 0

CCSDS_OMM_VERS = 2.0
CREATION_DATE  = 
ORIGINATOR     = 

OBJECT_NAME    = CZ-4B R/B
OBJECT_ID      = 1999-025C
CENTER_NAME    = EARTH
REF_FRAME      = TEME
TIME_SYSTEM    = UTC
MEAN_ELEMENT_THEORY = SGP/SGP4

EPOCH          = 2025-11-08T02:35:15.775872
MEAN_MOTION    = 14.18230163
ECCENTRICITY   = .0036621
INCLINATION    = 98.6821
RA_OF_ASC_NODE = 354.1533
ARG_OF_PERICENTER = 336.1731
MEAN_ANOMALY   = 77.7009

EPHEMERIS_TYPE = 0
CLASSIFICATION_TYPE = U
NORAD_CAT_ID   = 25732
ELEMENT_SET_NO = 999
REV_AT_EPOCH   = 37093
BSTAR          = .79827E-4
MEAN_MOTION_DOT = .122E-5
MEAN_MOTION_DDOT = 0

CCSDS_OMM_VERS = 2.0
CREATION_DATE  = 
ORIGINATOR     = 

OBJECT_NAME    = OKEAN-O
OBJECT_ID      = 1999-039A
CENTER_NAME    = EARTH
REF_FRAME      = TEME
TIME_SYSTEM    = UTC
MEAN_ELEMENT_THEORY = SGP/SGP4

EPOCH          = 2025-11-08T02:37:05.229120
MEAN_MOTION    = 14.80071500
ECCENTRICITY   = .0001577
INCLINATION    = 97.9653
RA_OF_ASC_NODE = 8.1029
ARG_OF_PERICENTER = 70.4268
MEAN_ANOMALY   = 289.7114

EPHEMERIS_TYPE = 0
CLASSIFICATION_TYPE = U
NORAD_CAT_ID   = 25860
ELEMENT_SET_NO = 999
REV_AT_EPOCH   = 41640
BSTAR          = .16412E-3
MEAN_MOTION_DOT = .1191E-4
MEAN_MOTION_DDOT = 0

CCSDS_OMM_VERS = 2.0
CREATION_DATE  = 
ORIGINATOR     = 

OBJECT_NAME    = SL-16 R/B
OBJECT_ID      = 1999-039B
CENTER_NAME    = EARTH
REF_FRAME      = TEME
TIME_SYSTEM    = UTC
MEAN_ELEMENT_THEORY = SGP/SGP4

EPOCH          = 2025-11-08T03:18:08.966592
MEAN_MOTION    = 14.81509279
ECCENTRICITY   = .001359
INCLINATION    = 98.0176
RA_OF_ASC_NODE = 6.2783
ARG_OF_PERICENTER = 294.0919
MEAN_ANOMALY   = 65.8871

EPHEMERIS_TYPE = 0
CLASSIFICATION_TYPE = U
NORAD_CAT_ID   = 25861
ELEMENT_SET_NO = 999
REV_AT_EPOCH   = 41886
BSTAR          = .1285E-3
MEAN_MOTION_DOT = .954E-5
MEAN_MOTION_DDOT = 0

CCSDS_OMM_VERS = 2.0
CREATION_DATE  = 
ORIGINATOR     = 

OBJECT_NAME    = DELTA 2 R/B
OBJECT_ID      = 1999-041E
CENTER_NAME    = EARTH
REF_FRAME      = TEME
TIME_SYSTEM    = UTC
MEAN_ELEMENT_THEORY = SGP/SGP4

EPOCH          = 2025-11-07T17:31:38.269056
MEAN_MOTION    = 14.11274438
ECCENTRICITY   = .0504791
INCLINATION    = 51.7632
RA_OF_ASC_NODE = 68.1806
ARG_OF_PERICENTER = 348.6016
MEAN_ANOMALY   = 10.3819

EPHEMERIS_TYPE = 0
CLASSIFICATION_TYPE = U
NORAD_CAT_ID   = 25876
ELEMENT_SET_NO = 999
REV_AT_EPOCH   = 34580
BSTAR          = .25692E-3
MEAN_MOTION_DOT = .1354E-4
MEAN_MOTION_DDOT = 0

CCSDS_OMM_VERS = 2.0
CREATION_DATE  = 
ORIGINATOR     = 

OBJECT_NAME    = HELIOS 1B
OBJECT_ID      = 1999-064A
CENTER_NAME    = EARTH
REF_FRAME      = TEME
TIME_SYSTEM    = UTC
MEAN_ELEMENT_THEORY = SGP/SGP4

EPOCH          = 2025-11-08T03:40:21.708192
MEAN_MOTION    = 14.87062349
ECCENTRICITY   = .0002575
INCLINATION    = 98.1754
RA_OF_ASC_NODE = 205.7976
ARG_OF_PERICENTER = 89.4853
MEAN_ANOMALY   = 270.6657

EPHEMERIS_TYPE = 0
CLASSIFICATION_TYPE = U
NORAD_CAT_ID   = 25977
ELEMENT_SET_NO = 999
REV_AT_EPOCH   = 66719
BSTAR          = .31978E-3
MEAN_MOTION_DOT = .281E-4
MEAN_MOTION_DDOT = 0

CCSDS_OMM_VERS = 2.0
CREATION_DATE  = 
ORIGINATOR     = 

OBJECT_NAME    = TERRA
OBJECT_ID      = 1999-068A
CENTER_NAME    = EARTH
REF_FRAME      = TEME
TIME_SYSTEM    = UTC
MEAN_ELEMENT_THEORY = SGP/SGP4

EPOCH          = 2025-11-08T03:29:14.789184
MEAN_MOTION    = 14.60890082
ECCENTRICITY   = .0002048
INCLINATION    = 97.9797
RA_OF_ASC_NODE = 5.0893
ARG_OF_PERICENTER = 173.5734
MEAN_ANOMALY   = 243.1346

EPHEMERIS_TYPE = 0
CLASSIFICATION_TYPE = U
NORAD_CAT_ID   = 25994
ELEMENT_SET_NO = 999
REV_AT_EPOCH   = 37733
BSTAR          = .16947E-3
MEAN_MOTION_DOT = .785E-5
MEAN_MOTION_DDOT = 0

CCSDS_OMM_VERS = 2.0
CREATION_DATE  = 
ORIGINATOR     = 

OBJECT_NAME    = SL-16 R/B
OBJECT_ID      = 2000-006B
CENTER_NAME    = EARTH
REF_FRAME      = TEME
TIME_SYSTEM    = UTC
MEAN_ELEMENT_THEORY = SGP/SGP4

EPOCH          = 2025-11-08T03:18:39.458016
MEAN_MOTION    = 14.15801894
ECCENTRICITY   = .0016582
INCLINATION    = 71.0041
RA_OF_ASC_NODE = 353.4139
ARG_OF_PERICENTER = 358.1338
MEAN_ANOMALY   = 1.9720

EPHEMERIS_TYPE = 0
CLASSIFICATION_TYPE = U
NORAD_CAT_ID   = 26070
ELEMENT_SET_NO = 999
REV_AT_EPOCH   = 33135
BSTAR          = .63896E-4
MEAN_MOTION_DOT = .78E-6
MEAN_MOTION_DDOT = 0

