SL-16 R/B               
1 24298U 96051B   25311.71490215 -.00000045  00000+0  24471-5 0  9999
2 24298  70.7596  73.4158 0017805 305.7990  54.1474 14.12392356504429
ORBVIEW 2 (SEASTAR)     
1 24883U 97037A   25312.06191949  .00000508  00000+0  19319-3 0  9991
2 24883  98.8445 108.2679 0003105  69.1749 290.9767 14.35375889491022
SL-16 R/B               
1 25400U 98043G   25312.13693671  .00000135  00000+0  75420-4 0  9994
2 25400  98.8066 259.7717 0010107  13.3100 346.8344 14.26011938421661
SL-16 R/B               
1 25407U 98045B   25312.08338786  .00000033  00000+0  40977-4 0  9996
2 25407  71.0113  77.3044 0008831 224.4472 135.5944 14.16168812409881
ISS (ZARYA)             
1 25544U 98067A   25311.45303466  .00013372  00000+0  24333-3 0  9996
2 25544  51.6332 317.1578 0005147  27.3119 332.8140 15.49822938537382
CZ-4B R/B               
1 25732U 99025C   25312.10782148  .00000122  00000+0  79827-4 0  9999
2 25732  98.6821 354.1533 0036621 336.1731  77.7009 14.18230163370932
OKEAN-O                 
1 25860U 99039A   25312.10908830  .00001191  00000+0  16412-3 0  9991
2 25860  97.9653   8.1029 0001577  70.4268 289.7114 14.80071500416402
SL-16 R/B               
1 25861U 99039B   25312.13760378  .00000954  00000+0  12850-3 0  9996
2 25861  98.0176   6.2783 0013590 294.0919  65.8871 14.81509279418861
DELTA 2 R/B             
1 25876U 99041E   25311.73030404  .00001354  00000+0  25692-3 0  9993
2 25876  51.7632  68.1806 0504791 348.6016  10.3819 14.11274438345804
HELIOS 1B               
1 25977U 99064A   25312.15302903  .00002810  00000+0  31978-3 0  9995
2 25977  98.1754 205.7976 0002575  89.4853 270.6657 14.87062349667194
TERRA                   
1 25994U 99068A   25312.14531006  .00000785  00000+0  16947-3 0  9993
2 25994  97.9797   5.0893 0002048 173.5734 243.1346 14.60890082377332
SL-16 R/B               
1 26070U 00006B   25312.13795669  .00000078  00000+0  63896-4 0  9990
2 26070  71.0041 353.4139 0016582 358.1338   1.9720 14.15801894331356
